GALAXY 33 (G-33)        
1 54026U 22128A   26165.15600350  .00000088  00000+0  00000+0 0  9996
2 54026   0.0117 338.5469 0001597 107.6213  99.4585  1.00270934 13716
GALAXY 34 (G-34)        
1 54027U 22128B   26164.73636187  .00000069  00000+0  00000+0 0  9996
2 54027   0.0115  29.5169 0001530  67.3543 301.2703  1.00275311 13871
ANGOSAT 2               
1 54033U 22131A   26164.98030029  .00000145  00000+0  00000+0 0  9992
2 54033   0.0320  78.9173 0001119  38.9375 160.3480  1.00271685 13448
EUTELSAT HOTBIRD 13F    
1 54048U 22134A   26165.04965449  .00000096  00000+0  00000+0 0  9997
2 54048   0.0487 293.2403 0002041  60.2338 299.7684  1.00271305 13349
LDPE-2                  
1 54219U 22144A   26164.56010370  .00000138  00000+0  00000+0 0  9995
2 54219   5.6041  63.6804 0001835 105.1995 133.7489  1.00530497 11807
EUTELSAT HOTBIRD 13G    
1 54225U 22146A   26164.62187817  .00000098  00000+0  00000+0 0  9997
2 54225   0.0497 229.4542 0001869 318.9715 310.3925  1.00271640  7434
ZHONGXING-19            
1 54230U 22148A   26165.15072105  .00000000  00000+0  00000+0 0  9990
2 54230   0.0247 351.8872 0002212 119.3521   8.6633  1.00270633 13352
GALAXY 31 (G-31)        
1 54243U 22153A   26165.15044597  .00000000  00000+0  00000+0 0  9994
2 54243   0.0195  13.1462 0000973  62.8336 119.6246  1.00270193  7109
GALAXY 32 (G-32)        
1 54244U 22153B   26164.60112796 -.00000163  00000+0  00000+0 0  9992
2 54244   0.0146  26.6441 0001981   6.1350 354.5447  1.00271032 13102
EUTELSAT 10B            
1 54259U 22157A   26165.19161331  .00000076  00000+0  00000+0 0  9998
2 54259   0.0632  99.9704 0001368  14.3756 227.1424  1.00266128 12999
GALAXY 35 (G-35)        
1 54741U 22170A   26165.17124903  .00000000  00000+0  00000+0 0  9998
2 54741   0.0195 359.4874 0001771  86.5785 144.9519  1.00269341 12869
GALAXY 36 (G-36)        
1 54742U 22170B   26165.17202904 -.00000176  00000+0  00000+0 0  9992
2 54742   0.0420 125.7235 0002475 317.7191 151.9705  1.00271107 12743
METEOSAT-12 (MTG-I1)    
1 54743U 22170C   26165.18961998  .00000000  00000+0  00000+0 0  9994
2 54743   0.7347  22.4374 0003143  72.1271 235.7711  1.00271990 12940
SHIJIAN-23 (SJ-23)      
1 55131U 23002A   26164.70807729 -.00000224  00000+0  00000+0 0  9998
2 55131   3.7083  78.3558 0003794 271.7420 317.2385  1.00088336 12472
APSTAR-6E               
1 55239U 23005A   26165.21622677 -.00000309  00000+0  00000+0 0  9998
2 55239   0.0336 252.3724 0000986 319.8776 262.1322  1.00270809 18663
USA 342                 
1 55263U 23008A   26163.62596264  .00000000  00000+0  00000+0 0  9990
2 55263   0.0059 338.0459 0000206 258.5222 273.5711  1.00272733 12478
LDPE-3A                 
1 55264U 23008B   26165.13933840  .00000007  00000+0  00000+0 0  9991
2 55264   2.3397  81.6999 0001084  65.3341  68.9031  0.99144765 11784
ELEKTRO-L 4             
1 55506U 23016A   26164.81132420 -.00000048  00000+0  00000+0 0  9994
2 55506   0.0728 169.1265 0000722   5.3182 185.5613  1.00270555 12300
AMAZONAS NEXUS          
1 55508U 23017A   26164.82113138 -.00000272  00000+0  00000+0 0  9992
2 55508   0.0382  35.8415 0004973  29.0680  71.8382  1.00270955  7018
ZHONGXING-26            
1 55686U 23023A   26165.00040705 -.00000344  00000+0  00000+0 0  9996
2 55686   0.0684  71.0668 0003260  15.1921 301.3056  1.00272976 12193
LUCH-5X (OLYMP-K 2)     
1 55841U 23031A   26164.72000492  .00000044  00000+0  00000+0 0  9991
2 55841   0.0260  57.4593 0000663 161.4113   4.3436  1.00270613 11909
GAOFEN-13 02            
1 55912U 23036A   26165.10333517 -.00000210  00000+0  00000+0 0  9991
2 55912   1.0198   0.7225 0004131 335.4226 111.7668  1.00271034 12060
SES-18                  
1 55970U 23038A   26165.16925568 -.00000092  00000+0  00000+0 0  9994
2 55970   0.0173 297.9753 0000256 354.4206 287.9124  1.00270973 12070
SES-19                  
1 55971U 23038B   26165.15600350  .00000097  00000+0  00000+0 0  9997
2 55971   0.0095 340.8336 0001377  98.7934 104.0978  1.00270262 12066
INTELSAT 40E (IS-40E)   
1 56174U 23052A   26164.60112796 -.00000163  00000+0  00000+0 0  9995
2 56174   0.0150  41.2245 0001842  85.1314 260.9697  1.00271684 11781
VIASAT-3 F1             
1 56370U 23060A   26164.95815351  .00000000  00000+0  00000+0 0  9996
2 56370   0.0242 335.9098 0000845  97.2581  85.0616  1.00270620 11407
ARCTURUS                
1 56371U 23060B   26165.06144123 -.00000056  00000+0  00000+0 0  9994
2 56371   2.7678  79.9894 0002476  47.4400 229.5432  1.00272263 11426
GS-1                    
1 56372U 23060C   26164.84694289 -.00000216  00000+0  00000+0 0  9991
2 56372   2.7178  79.8739 0003843 282.3702 294.1673  1.00275569  7504
BEIDOU-3 G4             
1 56564U 23066A   26165.21735344 -.00000272  00000+0  00000+0 0  9992
2 56564   0.4903 330.6492 0004293 182.1009 328.0177  1.00274690 11368
ARABSAT-7B (BADR-8)     
1 56757U 23075A   26165.12351647  .00000153  00000+0  00000+0 0  9993
2 56757   0.0767  28.3502 0004427 354.5406 310.0084  1.00269870 11085
NVS-01 (IRNSS-1J)       
1 56759U 23076A   26165.00144705 -.00000324  00000+0  00000+0 0  9999
2 56759   2.1737 244.5024 0003194  36.6815 111.1614  1.00266167 11085
NUSANTARA TIGA (SATRIA) 
1 57045U 23086A   26164.62475562 -.00000224  00000+0  00000+0 0  9993
2 57045   0.0354 349.2310 0003253 358.6374 284.9819  1.00268124  9729
